[{"OBJECT_NAME":"STARLINK-32083","OBJECT_ID":"2024-136Q","EPOCH":"2026-03-09T10:03:14.631840","MEAN_MOTION":15.30191097,"ECCENTRICITY":0.00013167,"INCLINATION":53.1608,"RA_OF_ASC_NODE":76.8469,"ARG_OF_PERICENTER":87.1996,"MEAN_ANOMALY":272.9155,"EPHEMERIS_TYPE":0,"CLASSIFICATION_TYPE":"U","NORAD_CAT_ID":60343,"ELEMENT_SET_NO":999,"REV_AT_EPOCH":8962,"BSTAR":-2.142578e-6,"MEAN_MOTION_DOT":-4.23e-6,"MEAN_MOTION_DDOT":0},{"OBJECT_NAME":"FENGYUN 1C DEB","OBJECT_ID":"1999-025CAL","EPOCH":"2026-03-09T07:00:43.678944","MEAN_MOTION":15.11095595,"ECCENTRICITY":0.01530884,"INCLINATION":98.0969,"RA_OF_ASC_NODE":245.5084,"ARG_OF_PERICENTER":64.0772,"MEAN_ANOMALY":297.6143,"EPHEMERIS_TYPE":0,"CLASSIFICATION_TYPE":"U","NORAD_CAT_ID":31630,"ELEMENT_SET_NO":999,"REV_AT_EPOCH":99895,"BSTAR":0.00096285175,"MEAN_MOTION_DOT":0.00021366,"MEAN_MOTION_DDOT":0}]
